NORAD_CAT_ID,OBJECT_NAME,OBJECT_TYPE,EPOCH,MEAN_MOTION,ECCENTRICITY,INCLINATION,RA_OF_ASC_NODE,ARG_OF_PERICENTER,MEAN_ANOMALY,BSTAR,MEAN_MOTION_DOT,MEAN_MOTION_DDOT,TLE_LINE0,TLE_LINE1,TLE_LINE2,SEMIMAJOR_AXIS,PERIOD,APOGEE,PERIGEE,DECAYED
51747.0,STARLINK-3446,PAYLOAD,2023-08-09 00:54:00,15.08836223,0.0001079,53.2158,235.3867,89.988,270.1235,7.1619e-05,8.52e-06,0.0,0 STARLINK-3446,1 51747U 22016AK  23221.03751085  .00000852  00000-0  71619-4 0  9997,2 51747  53.2158 235.3867 0001079  89.9880 270.1235 15.08836223 82236,6917.892,95.438,540.503,539.01,0.0
51747.0,STARLINK-3446,PAYLOAD,2023-08-10 07:06:20,15.08842125,0.00011,53.2155,229.7369,87.6971,272.4148,4.5452e-05,4.36e-06,0.0,0 STARLINK-3446,1 51747U 22016AK  23222.29606797  .00000436  00000-0  45452-4 0  9999,2 51747  53.2155 229.7369 0001100  87.6971 272.4148 15.08842125 82425,6917.874,95.437,540.5,538.978,0.0
51747.0,STARLINK-3446,PAYLOAD,2023-08-12 00:26:22,15.08836672,0.0001062,53.216,222.0061,86.7657,273.3456,2.0399e-06,-2.55e-06,0.0,0 STARLINK-3446,1 51747U 22016AK  23224.01831162 -.00000255  00000-0  20399-5 0  9991,2 51747  53.2160 222.0061 0001062  86.7657 273.3456 15.08836672 82684,6917.891,95.438,540.49,539.021,0.0
51747.0,STARLINK-3446,PAYLOAD,2023-08-13 08:14:04,15.08840543,0.0001139,53.2149,216.0576,87.698,272.4143,2.7077e-05,1.43e-06,0.0,0 STARLINK-3446,1 51747U 22016AK  23225.34310974  .00000143  00000-0  27077-4 0  9995,2 51747  53.2149 216.0576 0001139  87.6980 272.4143 15.08840543 82886,6917.879,95.438,540.532,538.956,0.0
51747.0,STARLINK-3446,PAYLOAD,2023-08-14 06:29:29,15.088341,0.0001141,53.2153,211.8946,90.7387,269.3736,2.4019e-05,9.4e-07,0.0,0 STARLINK-3446,1 51747U 22016AK  23226.27047587  .00000094  00000-0  24019-4 0  9993,2 51747  53.2153 211.8946 0001141  90.7387 269.3736 15.08834100 83026,6917.898,95.438,540.553,538.974,0.0
51747.0,STARLINK-3446,PAYLOAD,2023-08-15 15:52:35,15.08834704,0.0001398,53.2172,205.6493,82.9454,277.1697,5.2467e-05,5.47e-06,0.0,0 STARLINK-3446,1 51747U 22016AK  23227.66151815  .00000547  00000-0  52467-4 0  9998,2 51747  53.2172 205.6493 0001398  82.9454 277.1697 15.08834704 83233,6917.897,95.438,540.729,538.794,0.0
51747.0,STARLINK-3446,PAYLOAD,2023-08-16 15:43:21,15.08841375,0.0001264,53.2165,201.1893,85.5441,274.5695,5.2113e-05,5.42e-06,0.0,0 STARLINK-3446,1 51747U 22016AK  23228.65511475  .00000542  00000-0  52113-4 0  9993,2 51747  53.2165 201.1893 0001264  85.5441 274.5695 15.08841375 83384,6917.876,95.437,540.616,538.867,0.0
51747.0,STARLINK-3446,PAYLOAD,2023-08-18 01:06:28,15.08833832,0.000127,53.216,194.9446,89.5194,270.5943,5.7671e-06,-1.96e-06,0.0,0 STARLINK-3446,1 51747U 22016AK  23230.04615996 -.00000196  00000-0  57671-5 0  9993,2 51747  53.2160 194.9446 0001270  89.5194 270.5943 15.08833832 83592,6917.899,95.438,540.643,538.886,0.0
51747.0,STARLINK-3446,PAYLOAD,2023-08-19 04:08:01,15.08838835,0.000142,53.2166,189.889,96.6675,263.4478,1.5561e-05,-4e-07,0.0,0 STARLINK-3446,1 51747U 22016AK  23231.17223830 -.00000040  00000-0  15561-4 0  9999,2 51747  53.2166 189.8890 0001420  96.6675 263.4478 15.08838835 83765,6917.884,95.438,540.731,538.767,0.0
51747.0,STARLINK-3446,PAYLOAD,2023-08-20 03:58:49,15.08827565,0.0001088,53.2163,185.4286,99.5697,260.5418,-3.8895e-05,-9.07e-06,0.0,0 STARLINK-3446,1 51747U 22016AK  23232.16585041 -.00000907  00000-0 -38895-4 0  9992,2 51747  53.2163 185.4286 0001088  99.5697 260.5418 15.08827565 83916,6917.918,95.438,540.536,539.031,0.0
51747.0,STARLINK-3446,PAYLOAD,2023-08-21 03:49:35,15.08841247,0.0001073,53.2164,180.9695,94.1982,265.9133,8.2428e-05,1.024e-05,0.0,0 STARLINK-3446,1 51747U 22016AK  23233.15944363  .00001024  00000-0  82428-4 0  9998,2 51747  53.2164 180.9695 0001073  94.1982 265.9133 15.08841247 84066,6917.877,95.437,540.484,538.999,0.0
51747.0,STARLINK-3446,PAYLOAD,2023-08-22 05:15:46,15.0883785,0.0001043,53.2169,176.2121,92.0284,268.0828,0.00017552,2.507e-05,0.0,0 STARLINK-3446,1 51747U 22016AK  23234.21928518  .00002507  00000-0  17552-3 0  9992,2 51747  53.2169 176.2121 0001043  92.0284 268.0828 15.08837850 84220,6917.887,95.438,540.473,539.03,0.0
51747.0,STARLINK-3446,PAYLOAD,2023-08-24 04:57:20,15.08847126,0.0001267,53.2172,167.2886,84.521,275.5926,3.1211e-05,2.09e-06,0.0,0 STARLINK-3446,1 51747U 22016AK  23236.20648336  .00000209  00000-0  31211-4 0  9996,2 51747  53.2172 167.2886 0001267  84.5210 275.5926 15.08847126 83391,6917.859,95.437,540.6,538.847,0.0
51747.0,STARLINK-3446,PAYLOAD,2023-08-25 04:48:07,15.08846081,0.000125,53.2167,162.8274,95.6059,264.5075,1.5697e-05,-3.8e-07,0.0,0 STARLINK-3446,1 51747U 22016AK  23237.20008234 -.00000038  00000-0  15697-4 0  9995,2 51747  53.2167 162.8274 0001250  95.6059 264.5075 15.08846081 84677,6917.862,95.437,540.592,538.862,0.0
51747.0,STARLINK-3446,PAYLOAD,2023-08-25 23:52:44,15.08843038,0.00012,53.2163,159.2606,92.8942,267.2188,-6.4767e-06,-3.91e-06,0.0,0 STARLINK-3446,1 51747U 22016AK  23237.99496498 -.00000391  00000-0 -64767-5 0  9990,2 51747  53.2163 159.2606 0001200  92.8942 267.2188 15.08843038 84794,6917.871,95.437,540.566,538.906,0.0
51747.0,STARLINK-3446,PAYLOAD,2023-08-26 04:38:54,15.08842912,0.0001422,53.2177,158.3672,94.7032,265.4123,-2.245e-05,-6.45e-06,0.0,0 STARLINK-3446,1 51747U 22016AK  23238.19368540 -.00000645  00000-0 -22450-4 0  9993,2 51747  53.2177 158.3672 0001422  94.7032 265.4123 15.08842912 83696,6917.871,95.437,540.72,538.753,0.0
51747.0,STARLINK-3446,PAYLOAD,2023-08-27 02:54:18,15.08840453,0.0001653,53.2186,154.2048,83.2633,276.8547,1.9786e-05,2.7e-07,0.0,0 STARLINK-3446,1 51747U 22016AK  23239.12104705  .00000027  00000-0  19786-4 0  9998,2 51747  53.2186 154.2048 0001653  83.2633 276.8547 15.08840453 84969,6917.879,95.438,540.888,538.6,0.0
51747.0,STARLINK-3446,PAYLOAD,2023-08-27 04:29:41,15.08840123,0.000167,53.2186,153.9077,82.6349,277.4833,1.5268e-05,-4.5e-07,0.0,0 STARLINK-3446,1 51747U 22016AK  23239.18728752 -.00000045  00000-0  15268-4 0  9990,2 51747  53.2186 153.9077 0001670  82.6349 277.4833 15.08840123 83848,6917.88,95.438,540.9,538.59,0.0
51747.0,STARLINK-3446,PAYLOAD,2023-08-28 10:42:01,15.0884081,0.0001583,53.2179,148.2586,98.0142,262.103,1.6205e-05,-3e-07,0.0,0 STARLINK-3446,1 51747U 22016AK  23240.44584773 -.00000030  00000-0  16205-4 0  9990,2 51747  53.2179 148.2586 0001583  98.0142 262.1030 15.08840810 85167,6917.878,95.438,540.838,538.648,0.0
51747.0,STARLINK-3446,PAYLOAD,2023-08-29 10:32:48,15.08837704,0.0001338,53.2165,143.8003,89.9824,270.1321,-1.7182e-05,-5.61e-06,0.0,0 STARLINK-3446,1 51747U 22016AK  23241.43945293 -.00000561  00000-0 -17182-4 0  9993,2 51747  53.2165 143.8003 0001338  89.9824 270.1321 15.08837704 85318,6917.887,95.438,540.678,538.827,0.0
51747.0,STARLINK-3446,PAYLOAD,2023-08-30 10:23:35,15.08843511,0.0001309,53.2167,139.3397,92.6063,267.5079,1.1764e-05,-1.01e-06,0.0,0 STARLINK-3446,1 51747U 22016AK  23242.43305094 -.00000101  00000-0  11764-4 0  9992,2 51747  53.2167 139.3397 0001309  92.6063 267.5079 15.08843511 84334,6917.87,95.437,540.64,538.829,0.0
51747.0,STARLINK-3446,PAYLOAD,2023-08-31 02:17:27,15.08836684,0.0001499,53.2176,136.3652,97.0757,263.0405,7.8294e-05,9.58e-06,0.0,0 STARLINK-3446,1 51747U 22016AK  23243.09545452  .00000958  00000-0  78294-4 0  9999,2 51747  53.2176 136.3652 0001499  97.0757 263.0405 15.08836684 85567,6917.891,95.438,540.793,538.719,0.0
51747.0,STARLINK-3446,PAYLOAD,2023-09-01 10:05:10,15.08837938,0.000138,53.2158,130.4181,87.1947,272.9203,3.0056e-05,1.9e-06,0.0,0 STARLINK-3446,1 51747U 22016AK  23244.42025643  .00000190  00000-0  30056-4 0  9994,2 51747  53.2158 130.4181 0001380  87.1947 272.9203 15.08837938 85769,6917.887,95.438,540.706,538.797,0.0
51747.0,STARLINK-3446,PAYLOAD,2023-09-02 01:59:01,15.08841936,0.0001494,53.2153,127.4449,81.0354,279.0807,5.5603e-05,5.97e-06,0.0,0 STARLINK-3446,1 51747U 22016AK  23245.08265254  .00000597  00000-0  55603-4 0  9997,2 51747  53.2153 127.4449 0001494  81.0354 279.0807 15.08841936 84735,6917.874,95.437,540.773,538.706,0.0
51747.0,STARLINK-3446,PAYLOAD,2023-09-02 16:17:29,15.08836629,0.0001353,53.2168,124.7684,82.0504,278.0642,3.0802e-06,-2.39e-06,0.0,0 STARLINK-3446,1 51747U 22016AK  23245.67881748 -.00000239  00000-0  30802-5 0  9993,2 51747  53.2168 124.7684 0001353  82.0504 278.0642 15.08836629 85958,6917.891,95.438,540.692,538.82,0.0
51747.0,STARLINK-3446,PAYLOAD,2023-09-02 22:39:01,15.0885192,0.0001472,53.2145,123.5763,95.7067,264.4092,-6.7712e-05,-1.366e-05,0.0,0 STARLINK-3446,1 51747U 22016AK  23245.94377190 -.00001366  00000-0 -67712-4 0  9996,2 51747  53.2145 123.5763 0001472  95.7067 264.4092 15.08851920 84863,6917.844,95.437,540.727,538.691,0.0
51747.0,STARLINK-3446,PAYLOAD,2023-09-03 01:49:48,15.08841519,0.000147,53.2152,122.9832,89.879,270.237,4.3111e-05,3.98e-06,0.0,0 STARLINK-3446,1 51747U 22016AK  23246.07625284  .00000398  00000-0  43111-4 0  9990,2 51747  53.2152 122.9832 0001470  89.8790 270.2370 15.08841519 86012,6917.876,95.437,540.758,538.724,0.0
51747.0,STARLINK-3446,PAYLOAD,2023-09-04 00:05:12,15.08836665,0.0001362,53.2169,118.8187,88.6355,271.4793,2.935e-05,1.79e-06,0.0,0 STARLINK-3446,1 51747U 22016AK  23247.00361803  .00000179  00000-0  29350-4 0  9994,2 51747  53.2169 118.8187 0001362  88.6355 271.4793 15.08836665 86154,6917.891,95.438,540.698,538.813,0.0
51747.0,STARLINK-3446,PAYLOAD,2023-09-04 08:02:08,15.0883655,0.000135,53.2169,117.3321,88.157,271.9576,2.5715e-05,1.21e-06,0.0,0 STARLINK-3446,1 51747U 22016AK  23247.33481907  .00000121  00000-0  25715-4 0  9996,2 51747  53.2169 117.3321 0001350  88.1570 271.9576 15.08836550 85076,6917.891,95.438,540.69,538.822,0.0
51747.0,STARLINK-3446,PAYLOAD,2023-09-05 01:31:23,15.0883438,0.0001289,53.217,114.0635,97.7119,262.402,-1.4985e-05,-5.26e-06,0.0,0 STARLINK-3446,1 51747U 22016AK  23248.06346420 -.00000526  00000-0 -14985-4 0  9995,2 51747  53.2170 114.0635 0001289  97.7119 262.4020 15.08834380 86312,6917.898,95.438,540.654,538.871,0.0
